#aV2010  4 11  0  0   .00000000      96 DD+AD WGS84 FIT  NGA
## 1579       .00000000   900.00000000 55297  .0000000000000
+   30     1  2  3  4  5  6  7  8 10 11 12 13 14 15 16 17 18
+         19 20 21 22 23 24 26 27 28 29 30 31 32  0  0  0  0
+          0  0  0  0  0  0  0  0  0  0  0  0  0  0  0  0  0
+          0  0  0  0  0  0  0  0  0  0  0  0  0  0  0  0  0
+          0  0  0  0  0  0  0  0  0  0  0  0  0  0  0  0  0
++         0  0  0  0  0  0  0  0  0  0  0  0  0  0  0  0  0
++         0  0  0  0  0  0  0  0  0  0  0  0  0  0  0  0  0
++         0  0  0  0  0  0  0  0  0  0  0  0  0  0  0  0  0
++         0  0  0  0  0  0  0  0  0  0  0  0  0  0  0  0  0
++         0  0  0  0  0  0  0  0  0  0  0  0  0  0  0  0  0
%c cc cc ccc ccc cccc cccc cccc cccc ccccc ccccc ccccc ccccc
%c cc cc ccc ccc cccc cccc cccc cccc ccccc ccccc ccccc ccccc
%f  0.0000000  0.000000000  0.00000000000  0.000000000000000
%f  0.0000000  0.000000000  0.00000000000  0.000000000000000
%i    0    0    0    0      0      0      0      0         0
%i    0    0    0    0      0      0      0      0         0
/*      NGA, ST. LOUIS,MO.                                  
/*   EPHEMERIS COMPUTED FROM  3 DAYS OF DATA                
/* CCCCCCCCCCCCCCCCCCCCCCCCCCCCCCCCCCCCCCCCCCCCCCCCCCCCCCCCC
/* CCCCCCCCCCCCCCCCCCCCCCCCCCCCCCCCCCCCCCCCCCCCCCCCCCCCCCCCC
*  2010  4 11 18 15   .00000000                                                 
P  1   3282.398860 -17359.380181 -19914.667993   -108.286398                    
V  1  22712.910244 -10645.711360  13234.340148      -.040594                    
P  2  14169.579173  10845.589354 -19837.202831    245.473405                    
V  2  -1814.317307  25016.936301  11950.871927       .036593                    
P  3 -24770.437764  -9599.989613   2754.559372    540.557313                    
V  3  -1972.116659  -4920.375192 -30507.859748       .050646                    
P  4   6937.386363  23068.881907 -10942.075305     57.713643                    
V  4  -3867.105471  13650.313006  27098.285926       .085597                    
P  5  21388.925257   1282.654734 -15769.989509     -1.924526                    
V  5 -16778.484048  10980.600742 -21807.207419       .001966                    
P  6 -23249.547653 -12993.483162    297.748133    668.899902                    
V  6   1608.457597  -3153.472100 -31067.527312      -.092002                    
P  7  -6851.341856  24172.622344  -8370.219887       .614778                    
V  7  -1921.527862 -10748.240383 -29658.693714      -.004147                    
P  8   -198.762506  25933.196002   4199.569249      4.802717                    
V  8  -2803.104219   5132.799257 -32209.318738       .001750                    
P 10  15468.450887   8354.645196 -20187.776050    -40.085652                    
V 10 -22161.514732  11946.793218 -11804.053126      -.008850                    
P 11 -13169.140748  12735.263764  18870.351245    -55.931757                    
V 11  -6794.532566 -24078.798577  11718.446809      -.023215                    
P 12  23724.383237 -11753.011073    419.973512   -127.856954                    
V 12    787.606446   2582.126317  32049.270529       .044251                    
P 13  -7449.776827  12576.621117 -22311.618313    305.402174                    
V 13 -22519.146079 -16483.484796  -1801.599212      -.003279                    
P 14 -11355.145818 -19515.594265  14223.902285     32.697675                    
V 14  15308.829482   9060.515022  24768.839477       .046311                    
P 15  23258.465259   4070.438076  12295.223533   -287.866211                    
V 15  11987.636902  10205.966219 -25972.506566       .046854                    
P 16 -17229.649413  -6258.371493 -19272.245738    -60.512623                    
V 16  21517.760747 -11661.389793 -15144.966795      -.038834                    
P 17  11327.610881  19558.626728  14215.663977    143.557926                    
V 17 -15897.541491  -8253.069217  23984.984184       .026402                    
P 18  11893.967587 -18257.066585  15188.387691     61.214253                    
V 18  18276.555861  -5986.136922 -22261.200691       .024633                    
P 19 -22443.949979  -4897.089550  13625.002611    -27.417000                    
V 19 -12451.006759 -11944.713740 -24571.110646      -.025756                    
P 20 -22144.934462  14432.197973  -2418.043978     57.912789                    
V 20  -4292.809895  -1687.752744  31065.962340      -.006565                    
P 21   4206.307518 -25566.321972  -3691.902053    -52.787308                    
V 21   3912.319935   5417.693990 -31058.981149      -.025512                    
P 22   -554.222544 -16741.137131  20755.740982    174.770577                    
V 22  23905.907304 -10540.233039  -8009.703296      -.009601                    
P 23 -16251.451333   6044.645131 -20234.899202    374.570524                    
V 23 -20948.133113 -14599.913043  12176.960850      -.012386                    
P 24   3522.958150 -26432.728234  -1399.190866    278.251412                    
V 24   2749.843971   2137.745027 -31276.817574       .030650                    
P 26  12107.289216  -8598.323385  21512.021514    -38.211783                    
V 26  22887.863976  17008.899552  -5512.051143      -.045659                    
P 27  14920.528876  -4281.861982  22223.444158    142.166083                    
V 27    608.927534  26551.060625   4996.732420       .033059                    
P 28  -2113.088902  16846.718693  20826.433839    -18.714558                    
V 28 -23341.854977  10125.551480 -11093.671231       .007606                    
P 29   8779.668475 -12383.991763 -21700.384584    111.863956                    
V 29  22929.305746  15685.748162    360.612315       .029380                    
P 30  17236.935466 -17887.803755  -9714.338015    232.828314                    
V 30  11544.015438  -3621.161624  28346.195539       .034530                    
P 31  -7589.581179 -21835.496385 -12709.009427    -42.708000                    
V 31   2826.187394 -16404.781393  26237.758037       .020721                    
P 32 -25082.931191   5735.626956   6183.175209     53.752882                    
V 32   5769.111759  -5614.013331  30626.272988      -.085327                    
EOF
